{"type": "FeatureCollection", "features": [ {"type": "Feature", "properties": {"norad_id": 17070, "name": "POLAR BEAR", "group": "nnss", "lat": -71.81729404098397, "lon": -177.0903127911406, "alt_km": 1013.1525154899118, "timestamp": "2025-12-05T05:43:15.378067+00:00", "meta": {"OBJECT_NAME": "POLAR BEAR", "OBJECT_ID": "1986-088A", "EPOCH": "2025-12-04T14:38:26.434752", "MEAN_MOTION": 13.75248292, "ECCENTRICITY": 0.0040398, "INCLINATION": 89.618, "RA_OF_ASC_NODE": 184.0988, "ARG_OF_PERICENTER": 142.9088, "MEAN_ANOMALY": 276.0886, "EPHEMERIS_TYPE": 0, "CLASSIFICATION_TYPE": "U", "NORAD_CAT_ID": 17070, "ELEMENT_SET_NO": 999, "REV_AT_EPOCH": 95867, "BSTAR": 0.00016782, "MEAN_MOTION_DOT": 1.73e-06, "MEAN_MOTION_DDOT": 0}, "tle": {"line1": "1 17070U 86088A   25338.61002818  .00000173  00000+0  16782-3 0  9999", "line2": "2 17070  89.6180 184.0988 0040398 142.9088 276.0886 13.75248292958678"}}, "geometry": {"type": "Point", "coordinates": [-177.0903127911406, -71.81729404098397]}}, {"type": "Feature", "properties": {"norad_id": 18361, "name": "OSCAR 27", "group": "nnss", "lat": -75.58694130175058, "lon": 80.44875067521563, "alt_km": 1038.5738491453521, "timestamp": "2025-12-05T05:43:15.378078+00:00", "meta": {"OBJECT_NAME": "OSCAR 27", "OBJECT_ID": "1987-080A", "EPOCH": "2025-12-04T15:48:35.867808", "MEAN_MOTION": 13.44904063, "ECCENTRICITY": 0.0102446, "INCLINATION": 90.3742, "RA_OF_ASC_NODE": 78.97, "ARG_OF_PERICENTER": 247.2694, "MEAN_ANOMALY": 111.7601, "EPHEMERIS_TYPE": 0, "CLASSIFICATION_TYPE": "U", "NORAD_CAT_ID": 18361, "ELEMENT_SET_NO": 999, "REV_AT_EPOCH": 87448, "BSTAR": 0.00026829, "MEAN_MOTION_DOT": 1.7e-06, "MEAN_MOTION_DDOT": 0}, "tle": {"line1": "1 18361U 87080A   25338.65874847  .00000170  00000+0  26829-3 0  9999", "line2": "2 18361  90.3742  78.9700 0102446 247.2694 111.7601 13.44904063874480"}}, "geometry": {"type": "Point", "coordinates": [80.44875067521563, -75.58694130175058]}}, {"type": "Feature", "properties": {"norad_id": 18362, "name": "OSCAR 29", "group": "nnss", "lat": -51.0589501954985, "lon": 79.91493501305747, "alt_km": 1040.027709618691, "timestamp": "2025-12-05T05:43:15.378089+00:00", "meta": {"OBJECT_NAME": "OSCAR 29", "OBJECT_ID": "1987-080B", "EPOCH": "2025-12-04T07:01:08.237280", "MEAN_MOTION": 13.44445999, "ECCENTRICITY": 0.0103714, "INCLINATION": 90.3755, "RA_OF_ASC_NODE": 79.4145, "ARG_OF_PERICENTER": 271.7522, "MEAN_ANOMALY": 140.9753, "EPHEMERIS_TYPE": 0, "CLASSIFICATION_TYPE": "U", "NORAD_CAT_ID": 18362, "ELEMENT_SET_NO": 999, "REV_AT_EPOCH": 87396, "BSTAR": 0.00022874, "MEAN_MOTION_DOT": 1.45e-06, "MEAN_MOTION_DDOT": 0}, "tle": {"line1": "1 18362U 87080B   25338.29245645  .00000145  00000+0  22874-3 0  9996", "line2": "2 18362  90.3755  79.4145 0103714 271.7522 140.9753 13.44445999873967"}}, "geometry": {"type": "Point", "coordinates": [79.91493501305747, -51.0589501954985]}}, {"type": "Feature", "properties": {"norad_id": 19070, "name": "OSCAR 23", "group": "nnss", "lat": 7.9725593975729225, "lon": -163.7948068750161, "alt_km": 1031.7552340624225, "timestamp": "2025-12-05T05:43:15.378099+00:00", "meta": {"OBJECT_NAME": "OSCAR 23", "OBJECT_ID": "1988-033A", "EPOCH": "2025-12-04T16:47:37.218912", "MEAN_MOTION": 13.27785277, "ECCENTRICITY": 0.0188859, "INCLINATION": 90.3222, "RA_OF_ASC_NODE": 16.1432, "ARG_OF_PERICENTER": 202.3081, "MEAN_ANOMALY": 277.4434, "EPHEMERIS_TYPE": 0, "CLASSIFICATION_TYPE": "U", "NORAD_CAT_ID": 19070, "ELEMENT_SET_NO": 999, "REV_AT_EPOCH": 82146, "BSTAR": 0.00021638, "MEAN_MOTION_DOT": 1.15e-06, "MEAN_MOTION_DDOT": 0}, "tle": {"line1": "1 19070U 88033A   25338.69973633  .00000115  00000+0  21638-3 0  9995", "line2": "2 19070  90.3222  16.1432 0188859 202.3081 277.4434 13.27785277821460"}}, "geometry": {"type": "Point", "coordinates": [-163.7948068750161, 7.9725593975729225]}}, {"type": "Feature", "properties": {"norad_id": 19071, "name": "OSCAR 32", "group": "nnss", "lat": -79.1105855573167, "lon": 17.96961130362829, "alt_km": 1167.3358278148544, "timestamp": "2025-12-05T05:43:15.378110+00:00", "meta": {"OBJECT_NAME": "OSCAR 32", "OBJECT_ID": "1988-033B", "EPOCH": "2025-12-04T16:15:19.253088", "MEAN_MOTION": 13.27952429, "ECCENTRICITY": 0.0187676, "INCLINATION": 90.3226, "RA_OF_ASC_NODE": 16.2739, "ARG_OF_PERICENTER": 189.2128, "MEAN_ANOMALY": 288.8586, "EPHEMERIS_TYPE": 0, "CLASSIFICATION_TYPE": "U", "NORAD_CAT_ID": 19071, "ELEMENT_SET_NO": 999, "REV_AT_EPOCH": 82158, "BSTAR": 0.00024792, "MEAN_MOTION_DOT": 1.32e-06, "MEAN_MOTION_DDOT": 0}, "tle": {"line1": "1 19071U 88033B   25338.67730617  .00000132  00000+0  24792-3 0  9990", "line2": "2 19071  90.3226  16.2739 0187676 189.2128 288.8586 13.27952429821589"}}, "geometry": {"type": "Point", "coordinates": [17.96961130362829, -79.1105855573167]}}, {"type": "Feature", "properties": {"norad_id": 19223, "name": "NOVA 2", "group": "nnss", "lat": -71.14582013345685, "lon": -101.68116547641708, "alt_km": 1200.4413338977838, "timestamp": "2025-12-05T05:43:15.378136+00:00", "meta": {"OBJECT_NAME": "NOVA 2", "OBJECT_ID": "1988-052A", "EPOCH": "2025-12-04T16:24:02.924352", "MEAN_MOTION": 13.22934571, "ECCENTRICITY": 0.0031229, "INCLINATION": 89.9873, "RA_OF_ASC_NODE": 78.2823, "ARG_OF_PERICENTER": 38.5852, "MEAN_ANOMALY": 91.0032, "EPHEMERIS_TYPE": 0, "CLASSIFICATION_TYPE": "U", "NORAD_CAT_ID": 19223, "ELEMENT_SET_NO": 999, "REV_AT_EPOCH": 80841, "BSTAR": 0.00019797, "MEAN_MOTION_DOT": 9.2e-07, "MEAN_MOTION_DDOT": 0}, "tle": {"line1": "1 19223U 88052A   25338.68336718  .00000092  00000+0  19797-3 0  9999", "line2": "2 19223  89.9873  78.2823 0031229  38.5852  91.0032 13.22934571808414"}}, "geometry": {"type": "Point", "coordinates": [-101.68116547641708, -71.14582013345685]}}, {"type": "Feature", "properties": {"norad_id": 19419, "name": "OSCAR 25", "group": "nnss", "lat": 24.32272825796565, "lon": -159.76462742001078, "alt_km": 1124.826221895506, "timestamp": "2025-12-05T05:43:15.378149+00:00", "meta": {"OBJECT_NAME": "OSCAR 25", "OBJECT_ID": "1988-074A", "EPOCH": "2025-12-04T17:02:05.685792", "MEAN_MOTION": 13.42621101, "ECCENTRICITY": 0.0094238, "INCLINATION": 90.0354, "RA_OF_ASC_NODE": 20.2175, "ARG_OF_PERICENTER": 269.1747, "MEAN_ANOMALY": 214.0355, "EPHEMERIS_TYPE": 0, "CLASSIFICATION_TYPE": "U", "NORAD_CAT_ID": 19419, "ELEMENT_SET_NO": 999, "REV_AT_EPOCH": 82532, "BSTAR": 0.00029455, "MEAN_MOTION_DOT": 1.79e-06, "MEAN_MOTION_DDOT": 0}, "tle": {"line1": "1 19419U 88074A   25338.70978803  .00000179  00000+0  29455-3 0  9998", "line2": "2 19419  90.0354  20.2175 0094238 269.1747 214.0355 13.42621101825327"}}, "geometry": {"type": "Point", "coordinates": [-159.76462742001078, 24.32272825796565]}}, {"type": "Feature", "properties": {"norad_id": 19420, "name": "OSCAR 31", "group": "nnss", "lat": 41.99266559620526, "lon": 20.5346286567596, "alt_km": 1149.2479036270543, "timestamp": "2025-12-05T05:43:15.378160+00:00", "meta": {"OBJECT_NAME": "OSCAR 31", "OBJECT_ID": "1988-074B", "EPOCH": "2025-12-04T15:46:49.752192", "MEAN_MOTION": 13.42582718, "ECCENTRICITY": 0.0092483, "INCLINATION": 90.0371, "RA_OF_ASC_NODE": 20.5659, "ARG_OF_PERICENTER": 263.4336, "MEAN_ANOMALY": 212.1839, "EPHEMERIS_TYPE": 0, "CLASSIFICATION_TYPE": "U", "NORAD_CAT_ID": 19420, "ELEMENT_SET_NO": 999, "REV_AT_EPOCH": 82542, "BSTAR": 0.00025453, "MEAN_MOTION_DOT": 1.56e-06, "MEAN_MOTION_DDOT": 0}, "tle": {"line1": "1 19420U 88074B   25338.65752028  .00000156  00000+0  25453-3 0  9992", "line2": "2 19420  90.0371  20.5659 0092483 263.4336 212.1839 13.42582718825426"}}, "geometry": {"type": "Point", "coordinates": [20.5346286567596, 41.99266559620526]}}]}